[{"OBJECT_NAME":"HORS 2","OBJECT_ID":"2023-091AG","EPOCH":"2026-03-09T22:11:34.810944","MEAN_MOTION":15.2928008,"ECCENTRICITY":0.00098173,"INCLINATION":97.5195,"RA_OF_ASC_NODE":134.7443,"ARG_OF_PERICENTER":79.3164,"MEAN_ANOMALY":280.9181,"EPHEMERIS_TYPE":0,"CLASSIFICATION_TYPE":"U","NORAD_CAT_ID":57196,"ELEMENT_SET_NO":999,"REV_AT_EPOCH":14934,"BSTAR":0.00059338338,"MEAN_MOTION_DOT":0.00016821,"MEAN_MOTION_DDOT":0},{"OBJECT_NAME":"STARLINK-31995","OBJECT_ID":"2024-107P","EPOCH":"2026-03-09T06:35:29.872320","MEAN_MOTION":15.30196126,"ECCENTRICITY":0.0001148,"INCLINATION":53.1589,"RA_OF_ASC_NODE":67.4043,"ARG_OF_PERICENTER":72.8895,"MEAN_ANOMALY":287.2232,"EPHEMERIS_TYPE":0,"CLASSIFICATION_TYPE":"U","NORAD_CAT_ID":59958,"ELEMENT_SET_NO":999,"REV_AT_EPOCH":9853,"BSTAR":4.0266984e-5,"MEAN_MOTION_DOT":8.34e-6,"MEAN_MOTION_DDOT":0}]
